{
  "type": "FeatureCollection",
  "features": [
    {
      "type": "Feature",
      "properties": {"name": "Kota Semarang"},
      "geometry": {
        "type": "Polygon",
        "coordinates": [[
          [110.350, -6.935],
          [110.370, -6.932],
          [110.395, -6.930],
          [110.420, -6.930],
          [110.445, -6.931],
          [110.470, -6.934],
          [110.490, -6.938],
          [110.492, -6.950],
          [110.493, -6.970],
          [110.492, -6.990],
          [110.490, -7.010],
          [110.487, -7.025],
          [110.480, -7.040],
          [110.465, -7.050],
          [110.445, -7.055],
          [110.420, -7.058],
          [110.395, -7.055],
          [110.370, -7.050],
          [110.355, -7.040],
          [110.348, -7.025],
          [110.345, -7.010],
          [110.343, -6.990],
          [110.342, -6.970],
          [110.343, -6.955],
          [110.345, -6.945],
          [110.350, -6.935]
        ]]
      }
    }
  ]
}