{
  "type": "FeatureCollection",
  "features": [
    {
      "type": "Feature",
      "properties": {"name": "Semarang Tengah"},
      "geometry": {
        "type": "Polygon",
        "coordinates": [[
          [110.400, -6.955],
          [110.415, -6.955],
          [110.425, -6.960],
          [110.428, -6.970],
          [110.425, -6.980],
          [110.415, -6.985],
          [110.400, -6.985],
          [110.395, -6.980],
          [110.392, -6.970],
          [110.395, -6.960],
          [110.400, -6.955]
        ]]
      }
    },
    {
      "type": "Feature",
      "properties": {"name": "Semarang Utara"},
      "geometry": {
        "type": "Polygon",
        "coordinates": [[
          [110.380, -6.932],
          [110.400, -6.930],
          [110.420, -6.930],
          [110.440, -6.931],
          [110.455, -6.934],
          [110.458, -6.942],
          [110.455, -6.952],
          [110.440, -6.955],
          [110.420, -6.955],
          [110.400, -6.955],
          [110.385, -6.952],
          [110.380, -6.942],
          [110.380, -6.932]
        ]]
      }
    },
    {
      "type": "Feature",
      "properties": {"name": "Semarang Selatan"},
      "geometry": {
        "type": "Polygon",
        "coordinates": [[
          [110.395, -7.000],
          [110.410, -6.998],
          [110.425, -6.998],
          [110.440, -7.000],
          [110.450, -7.005],
          [110.452, -7.018],
          [110.448, -7.030],
          [110.435, -7.035],
          [110.420, -7.038],
          [110.405, -7.035],
          [110.395, -7.030],
          [110.390, -7.018],
          [110.392, -7.008],
          [110.395, -7.000]
        ]]
      }
    },
    {
      "type": "Feature",
      "properties": {"name": "Semarang Barat"},
      "geometry": {
        "type": "Polygon",
        "coordinates": [[
          [110.355, -6.945],
          [110.370, -6.942],
          [110.385, -6.942],
          [110.392, -6.950],
          [110.392, -6.965],
          [110.388, -6.980],
          [110.380, -6.990],
          [110.370, -6.995],
          [110.360, -6.992],
          [110.352, -6.980],
          [110.350, -6.965],
          [110.352, -6.952],
          [110.355, -6.945]
        ]]
      }
    },
    {
      "type": "Feature",
      "properties": {"name": "Semarang Timur"},
      "geometry": {
        "type": "Polygon",
        "coordinates": [[
          [110.435, -6.952],
          [110.450, -6.950],
          [110.465, -6.952],
          [110.475, -6.958],
          [110.478, -6.970],
          [110.475, -6.985],
          [110.468, -6.995],
          [110.455, -7.000],
          [110.440, -7.000],
          [110.430, -6.995],
          [110.425, -6.985],
          [110.425, -6.970],
          [110.428, -6.960],
          [110.435, -6.952]
        ]]
      }
    },
    {
      "type": "Feature",
      "properties": {"name": "Gajah Mungkur"},
      "geometry": {
        "type": "Polygon",
        "coordinates": [[
          [110.410, -6.990],
          [110.425, -6.988],
          [110.435, -6.990],
          [110.442, -6.998],
          [110.440, -7.010],
          [110.435, -7.020],
          [110.425, -7.025],
          [110.415, -7.022],
          [110.408, -7.015],
          [110.405, -7.005],
          [110.408, -6.995],
          [110.410, -6.990]
        ]]
      }
    },
    {
      "type": "Feature",
      "properties": {"name": "Candisari"},
      "geometry": {
        "type": "Polygon",
        "coordinates": [[
          [110.425, -6.988],
          [110.440, -6.985],
          [110.452, -6.988],
          [110.458, -6.998],
          [110.455, -7.010],
          [110.448, -7.020],
          [110.438, -7.025],
          [110.428, -7.022],
          [110.422, -7.015],
          [110.420, -7.005],
          [110.422, -6.995],
          [110.425, -6.988]
        ]]
      }
    },
    {
      "type": "Feature",
      "properties": {"name": "Tembalang"},
      "geometry": {
        "type": "Polygon",
        "coordinates": [[
          [110.445, -7.035],
          [110.460, -7.032],
          [110.475, -7.035],
          [110.482, -7.042],
          [110.480, -7.052],
          [110.472, -7.058],
          [110.460, -7.060],
          [110.448, -7.058],
          [110.440, -7.052],
          [110.438, -7.045],
          [110.440, -7.040],
          [110.445, -7.035]
        ]]
      }
    }
  ]
}