{
  "type": "FeatureCollection",
  "features": [
    {
      "type": "Feature",
      "properties": {
        "name": "Kali Mangkang Wetan",
        "length_m": 4000,
        "max_width_m": 12
      },
      "geometry": {
        "type": "LineString",
        "coordinates": [
          [
            110.4607918,
            -7.0448354
          ],
          [
            110.464337,
            -7.019868
          ],
          [
            110.461925,
            -7.002901
          ],
          [
            110.462442,
            -6.985934
          ],
          [
            110.467409,
            -6.960967
          ],
          [
            110.47,
            -6.94
          ]
        ]
      }
    },
    {
      "type": "Feature",
      "properties": {
        "name": "Kali Randugarut",
        "length_m": 4060,
        "max_width_m": 9
      },
      "geometry": {
        "type": "LineString",
        "coordinates": [
          [
            110.3194309,
            -6.97522
          ],
          [
            110.327248,
            -6.968176
          ],
          [
            110.329109,
            -6.969132
          ],
          [
            110.333898,
            -6.970088
          ],
          [
            110.343137,
            -6.963044
          ],
          [
            110.35,
            -6.96
          ]
        ]
      }
    },
    {
      "type": "Feature",
      "properties": {
        "name": "Kali Tapak",
        "length_m": 3050,
        "max_width_m": 9
      },
      "geometry": {
        "type": "LineString",
        "coordinates": [
          [
            110.37,
            -6.978
          ],
          [
            110.367703,
            -6.9704
          ],
          [
            110.35945,
            -6.9708
          ],
          [
            110.354126,
            -6.9712
          ],
          [
            110.35325,
            -6.9636
          ],
          [
            110.35,
            -6.96
          ]
        ]
      }
    },
    {
      "type": "Feature",
      "properties": {
        "name": "Kali Tugurejo",
        "length_m": 2979,
        "max_width_m": 18
      },
      "geometry": {
        "type": "LineString",
        "coordinates": [
          [
            110.351395,
            -6.9776603
          ],
          [
            110.352819,
            -6.970128
          ],
          [
            110.348287,
            -6.970596
          ],
          [
            110.346684,
            -6.971064
          ],
          [
            110.349529,
            -6.963532
          ],
          [
            110.35,
            -6.96
          ]
        ]
      }
    },
    {
      "type": "Feature",
      "properties": {
        "name": "Kali Jumbleng",
        "length_m": 2850,
        "max_width_m": 4
      },
      "geometry": {
        "type": "LineString",
        "coordinates": [
          [
            110.375,
            -6.968
          ],
          [
            110.377703,
            -6.9744
          ],
          [
            110.37445,
            -6.9888
          ],
          [
            110.374126,
            -7.0032
          ],
          [
            110.37825,
            -7.0096
          ],
          [
            110.38,
            -7.02
          ]
        ]
      }
    },
    {
      "type": "Feature",
      "properties": {
        "name": "Kali Tambakharjo",
        "length_m": 2000,
        "max_width_m": 9
      },
      "geometry": {
        "type": "LineString",
        "coordinates": [
          [
            110.4,
            -6.96
          ],
          [
            110.397703,
            -6.968
          ],
          [
            110.38945,
            -6.984
          ],
          [
            110.384126,
            -7.0
          ],
          [
            110.38325,
            -7.008
          ],
          [
            110.38,
            -7.02
          ]
        ]
      }
    },
    {
      "type": "Feature",
      "properties": {
        "name": "Kali Tawang Sari",
        "length_m": 1200,
        "max_width_m": 12
      },
      "geometry": {
        "type": "LineString",
        "coordinates": [
          [
            110.3863838,
            -6.9696568
          ],
          [
            110.39041,
            -6.962725
          ],
          [
            110.388481,
            -6.963794
          ],
          [
            110.389479,
            -6.964863
          ],
          [
            110.394927,
            -6.957931
          ],
          [
            110.398,
            -6.955
          ]
        ]
      }
    },
    {
      "type": "Feature",
      "properties": {
        "name": "Kali Karangayu",
        "length_m": 3150,
        "max_width_m": 8
      },
      "geometry": {
        "type": "LineString",
        "coordinates": [
          [
            110.3943125,
            -6.9922042
          ],
          [
            110.396753,
            -6.980763
          ],
          [
            110.393238,
            -6.977323
          ],
          [
            110.392651,
            -6.973882
          ],
          [
            110.396513,
            -6.962441
          ],
          [
            110.398,
            -6.955
          ]
        ]
      }
    },
    {
      "type": "Feature",
      "properties": {
        "name": "Kali Ronggolawe",
        "length_m": 2950,
        "max_width_m": 13
      },
      "geometry": {
        "type": "LineString",
        "coordinates": [
          [
            110.3943125,
            -6.9922042
          ],
          [
            110.396753,
            -6.980763
          ],
          [
            110.393238,
            -6.977323
          ],
          [
            110.392651,
            -6.973882
          ],
          [
            110.396513,
            -6.962441
          ],
          [
            110.398,
            -6.955
          ]
        ]
      }
    },
    {
      "type": "Feature",
      "properties": {
        "name": "Kali Bulu",
        "length_m": 5090,
        "max_width_m": 14
      },
      "geometry": {
        "type": "LineString",
        "coordinates": [
          [
            110.4050016,
            -6.9899849
          ],
          [
            110.405304,
            -6.978988
          ],
          [
            110.399651,
            -6.975991
          ],
          [
            110.396926,
            -6.972994
          ],
          [
            110.398651,
            -6.961997
          ],
          [
            110.398,
            -6.955
          ]
        ]
      }
    },
    {
      "type": "Feature",
      "properties": {
        "name": "Kali Baru",
        "length_m": 750,
        "max_width_m": 27
      },
      "geometry": {
        "type": "LineString",
        "coordinates": [
          [
            110.4189277,
            -6.9583454
          ],
          [
            110.420845,
            -6.952676
          ],
          [
            110.416807,
            -6.955007
          ],
          [
            110.415697,
            -6.957338
          ],
          [
            110.419036,
            -6.951669
          ],
          [
            110.42,
            -6.95
          ]
        ]
      }
    },
    {
      "type": "Feature",
      "properties": {
        "name": "Kali Semarang",
        "length_m": 6750,
        "max_width_m": 18
      },
      "geometry": {
        "type": "LineString",
        "coordinates": [
          [
            110.4,
            -6.99
          ],
          [
            110.405621,
            -6.979253
          ],
          [
            110.405535,
            -6.972587
          ],
          [
            110.405559,
            -6.969462
          ],
          [
            110.407445,
            -6.965328
          ],
          [
            110.411792,
            -6.95678
          ],
          [
            110.41768,
            -6.945407
          ],
          [
            110.42,
            -6.94
          ]
        ]
      }
    },
    {
      "type": "Feature",
      "properties": {
        "name": "Kali Banger",
        "length_m": 6526,
        "max_width_m": 20
      },
      "geometry": {
        "type": "LineString",
        "coordinates": [
          [
            110.4360753,
            -6.9920161
          ],
          [
            110.443686,
            -6.980981
          ],
          [
            110.445589,
            -6.974027
          ],
          [
            110.447602,
            -6.970614
          ],
          [
            110.451477,
            -6.966192
          ],
          [
            110.457813,
            -6.957356
          ],
          [
            110.465691,
            -6.945695
          ],
          [
            110.47,
            -6.94
          ]
        ]
      }
    },
    {
      "type": "Feature",
      "properties": {
        "name": "Kali Kartini",
        "length_m": 2200,
        "max_width_m": 6
      },
      "geometry": {
        "type": "LineString",
        "coordinates": [
          [
            110.4195953,
            -6.986975
          ],
          [
            110.431379,
            -6.98498
          ],
          [
            110.437207,
            -6.990985
          ],
          [
            110.445964,
            -6.99699
          ],
          [
            110.45917,
            -6.994995
          ],
          [
            110.47,
            -6.997
          ]
        ]
      }
    },
    {
      "type": "Feature",
      "properties": {
        "name": "Kali Tenggang",
        "length_m": 12170,
        "max_width_m": 27
      },
      "geometry": {
        "type": "LineString",
        "coordinates": [
          [
            110.4614353,
            -7.0093446
          ],
          [
            110.465725,
            -7.002263
          ],
          [
            110.465423,
            -6.995834
          ],
          [
            110.464676,
            -6.99051
          ],
          [
            110.463703,
            -6.986405
          ],
          [
            110.462759,
            -6.983258
          ],
          [
            110.462094,
            -6.980516
          ],
          [
            110.461913,
            -6.977501
          ],
          [
            110.462346,
            -6.973619
          ],
          [
            110.463419,
            -6.968541
          ],
          [
            110.465059,
            -6.962307
          ],
          [
            110.467101,
            -6.955307
          ],
          [
            110.469313,
            -6.948171
          ],
          [
            110.47144,
            -6.941566
          ],
          [
            110.47,
            -6.94
          ]
        ]
      }
    },
    {
      "type": "Feature",
      "properties": {
        "name": "Kali Tenggang II",
        "length_m": 2550,
        "max_width_m": 15
      },
      "geometry": {
        "type": "LineString",
        "coordinates": [
          [
            110.44,
            -7.005
          ],
          [
            110.44599,
            -7.001869
          ],
          [
            110.446024,
            -7.006738
          ],
          [
            110.448987,
            -7.011607
          ],
          [
            110.456399,
            -7.008476
          ],
          [
            110.4614353,
            -7.0093446
          ]
        ]
      }
    },
    {
      "type": "Feature",
      "properties": {
        "name": "Kali Asin",
        "length_m": 800,
        "max_width_m": 8
      },
      "geometry": {
        "type": "LineString",
        "coordinates": [
          [
            110.4097498,
            -6.9712842
          ],
          [
            110.412503,
            -6.964027
          ],
          [
            110.4093,
            -6.964771
          ],
          [
            110.409026,
            -6.965514
          ],
          [
            110.4132,
            -6.958257
          ],
          [
            110.415,
            -6.955
          ]
        ]
      }
    },
    {
      "type": "Feature",
      "properties": {
        "name": "Kali Garang",
        "length_m": 3000,
        "max_width_m": 10
      },
      "geometry": {
        "type": "LineString",
        "coordinates": [
          [
            110.395,
            -7.03
          ],
          [
            110.397703,
            -7.018
          ],
          [
            110.39445,
            -7.014
          ],
          [
            110.394126,
            -7.01
          ],
          [
            110.39825,
            -6.998
          ],
          [
            110.4,
            -6.99
          ]
        ]
      }
    },
    {
      "type": "Feature",
      "properties": {
        "name": "Kali Babon",
        "length_m": 8000,
        "max_width_m": 30
      },
      "geometry": {
        "type": "LineString",
        "coordinates": [
          [
            110.47,
            -6.99
          ],
          [
            110.473236,
            -6.98138
          ],
          [
            110.471236,
            -6.97495
          ],
          [
            110.468764,
            -6.971333
          ],
          [
            110.466764,
            -6.969146
          ],
          [
            110.466,
            -6.965981
          ],
          [
            110.466764,
            -6.960131
          ],
          [
            110.468764,
            -6.951806
          ],
          [
            110.471236,
            -6.942984
          ],
          [
            110.47,
            -6.94
          ]
        ]
      }
    },
    {
      "type": "Feature",
      "properties": {
        "name": "Kali Bringin",
        "length_m": 13447,
        "max_width_m": 5
      },
      "geometry": {
        "type": "LineString",
        "coordinates": [
          [
            110.428,
            -7.048
          ],
          [
            110.434321,
            -7.0453
          ],
          [
            110.43605,
            -7.043253
          ],
          [
            110.437334,
            -7.042311
          ],
          [
            110.438392,
            -7.042587
          ],
          [
            110.439479,
            -7.043822
          ],
          [
            110.440845,
            -7.045462
          ],
          [
            110.442696,
            -7.046828
          ],
          [
            110.445159,
            -7.047328
          ],
          [
            110.448263,
            -7.046633
          ],
          [
            110.451935,
            -7.04478
          ],
          [
            110.456007,
            -7.042162
          ],
          [
            110.460251,
            -7.039407
          ],
          [
            110.464409,
            -7.037185
          ],
          [
            110.465,
            -7.04
          ]
        ]
      }
    },
    {
      "type": "Feature",
      "properties": {
        "name": "Kali Sringin",
        "length_m": 5000,
        "max_width_m": 8
      },
      "geometry": {
        "type": "LineString",
        "coordinates": [
          [
            110.43,
            -7.03
          ],
          [
            110.439703,
            -7.0194
          ],
          [
            110.44345,
            -7.0168
          ],
          [
            110.450126,
            -7.0142
          ],
          [
            110.46125,
            -7.0036
          ],
          [
            110.47,
            -6.997
          ]
        ]
      }
    },
    {
      "type": "Feature",
      "properties": {
        "name": "Kali Siangker",
        "length_m": 4000,
        "max_width_m": 7
      },
      "geometry": {
        "type": "LineString",
        "coordinates": [
          [
            110.39,
            -7.04
          ],
          [
            110.393703,
            -7.026
          ],
          [
            110.39145,
            -7.02
          ],
          [
            110.392126,
            -7.014
          ],
          [
            110.39725,
            -7.0
          ],
          [
            110.4,
            -6.99
          ]
        ]
      }
    },
    {
      "type": "Feature",
      "properties": {
        "name": "Kali Silandak",
        "length_m": 3500,
        "max_width_m": 6
      },
      "geometry": {
        "type": "LineString",
        "coordinates": [
          [
            110.38,
            -7.03
          ],
          [
            110.385703,
            -7.018
          ],
          [
            110.38545,
            -7.014
          ],
          [
            110.388126,
            -7.01
          ],
          [
            110.39525,
            -6.998
          ],
          [
            110.4,
            -6.99
          ]
        ]
      }
    },
    {
      "type": "Feature",
      "properties": {
        "name": "Banjir Kanal Barat",
        "length_m": 10000,
        "max_width_m": 40
      },
      "geometry": {
        "type": "LineString",
        "coordinates": [
          [
            110.4,
            -6.99
          ],
          [
            110.403301,
            -6.984199
          ],
          [
            110.401702,
            -6.979677
          ],
          [
            110.399569,
            -6.97709
          ],
          [
            110.397406,
            -6.976146
          ],
          [
            110.395726,
            -6.975753
          ],
          [
            110.394916,
            -6.974548
          ],
          [
            110.395138,
            -6.971565
          ],
          [
            110.396288,
            -6.966708
          ],
          [
            110.398021,
            -6.960794
          ],
          [
            110.399843,
            -6.955159
          ],
          [
            110.398,
            -6.955
          ]
        ]
      }
    },
    {
      "type": "Feature",
      "properties": {
        "name": "Banjir Kanal Timur",
        "length_m": 12000,
        "max_width_m": 35
      },
      "geometry": {
        "type": "LineString",
        "coordinates": [
          [
            110.465,
            -7.04
          ],
          [
            110.469035,
            -7.0348
          ],
          [
            110.468479,
            -7.030253
          ],
          [
            110.467477,
            -7.026811
          ],
          [
            110.466249,
            -7.024587
          ],
          [
            110.46505,
            -7.023322
          ],
          [
            110.464131,
            -7.022462
          ],
          [
            110.463696,
            -7.021328
          ],
          [
            110.463873,
            -7.019328
          ],
          [
            110.464692,
            -7.016133
          ],
          [
            110.466077,
            -7.01178
          ],
          [
            110.467864,
            -7.006662
          ],
          [
            110.469823,
            -7.001407
          ],
          [
            110.471694,
            -6.996685
          ],
          [
            110.47,
            -6.997
          ]
        ]
      }
    }
  ]
}